名称,郵便番号,所在地,TEL,学校種別,BCODE,SCODE,HCODE,EDIT_DAT,x,y
神流町立万場小学校,370-1504,神流町大字万場甲84-2,0274-57-2320,,公立小学校,公立小学校,公立小学校,2015/10/,138.9147561,36.1161527
上野村立上野小学校,370-1611,上野村新羽32,0274-59-2004,,公立小学校,公立小学校,公立小学校,2015/10/,138.7854389,36.08486185
南牧村立南牧小学校,370-2803,南牧村大字千原419番地1,0274-87-2311,,公立小学校,公立小学校,公立小学校,2015/10/,138.7356668,36.17497536
富岡市立富岡小学校,370-2316,富岡市富岡1359,0274-62-3451,,公立小学校,公立小学校,公立小学校,2015/10/,138.8941921,36.25879609
富岡市立西小学校,370-2343,富岡市七日市1073-1,0274-62-0811,,公立小学校,公立小学校,公立小学校,2015/10/,138.8801435,36.25590314
富岡市立一ﾉ宮小学校,370-2452,富岡市一ﾉ宮16-1,0274-62-2034,,公立小学校,公立小学校,公立小学校,2015/10/,138.8554968,36.24889755
富岡市立高瀬小学校,370-2333,富岡市中高瀬761,0274-62-0578,,公立小学校,公立小学校,公立小学校,2015/10/,138.8789361,36.2455732
富岡市立額部小学校,370-2324,富岡市南後箇275,0274-62-0737,,公立小学校,公立小学校,公立小学校,2015/10/,138.8677831,36.23424866
富岡市立吉田小学校,370-2464,富岡市南蛇井275,0274-67-2227,,公立小学校,公立小学校,公立小学校,2015/10/,138.8148503,36.23798513
富岡市立丹生小学校,370-2461,富岡市上丹生3,0274-67-3456,,公立小学校,公立小学校,公立小学校,2015/10/,138.8234172,36.26136544
下仁田町立下仁田小学校,370-2601,下仁田町大字下仁田73,0274-82-2077,,公立小学校,公立小学校,公立小学校,2015/10/,138.7804013,36.21256688
藤岡市立藤岡第一小学校,375-0024,藤岡市藤岡1848-2,0274-22-0549,,公立小学校,公立小学校,公立小学校,2015/10/,139.0744315,36.2420092
藤岡市立藤岡第二小学校,375-0024,藤岡市藤岡991,0274-22-0854,,公立小学校,公立小学校,公立小学校,2015/10/,139.0735901,36.25356596
藤岡市立小野小学校,375-0004,藤岡市森541,0274-22-2546,,公立小学校,公立小学校,公立小学校,2015/10/,139.0755359,36.27826456
藤岡市立美土里小学校,375-0052,藤岡市下大塚222,0274-22-2545,,公立小学校,公立小学校,公立小学校,2015/10/,139.0521761,36.25543849
藤岡市立美九里東小学校,375-0023,藤岡市本郷2067,0274-22-0813,,公立小学校,公立小学校,公立小学校,2015/10/,139.0755774,36.22230664
藤岡市立美九里西小学校,375-0037,藤岡市三本木769,0274-22-1945,,公立小学校,公立小学校,公立小学校,2015/10/,139.0568271,36.20710526
藤岡市立平井小学校,375-0041,藤岡市緑埜388,0274-22-0705,,公立小学校,公立小学校,公立小学校,2015/10/,139.0353235,36.2382911
藤岡市立日野小学校,375-0045,藤岡市金井658,0274-22-0824,,公立小学校,公立小学校,公立小学校,2015/10/,139.0233123,36.21218878
藤岡市立鬼石北小学校,370-1406,藤岡市浄法寺842,0274-52-2754,,公立小学校,公立小学校,公立小学校,2015/10/,139.0591385,36.18798598
藤岡市立鬼石小学校,370-1401,藤岡市鬼石439,0274-52-2756,,公立小学校,公立小学校,公立小学校,2015/10/,139.0555345,36.15838196
高崎市立吉井小学校,370-2132,高崎市吉井町吉井235-1,027-387-3210,,公立小学校,公立小学校,公立小学校,2015/10/,138.9829641,36.25543883
高崎市立吉井西小学校,370-2127,高崎市吉井町長根1930-1,027-387-2817,,公立小学校,公立小学校,公立小学校,2015/10/,138.9686779,36.25494472
高崎市立多胡小学校,370-2124,高崎市吉井町塩23-3,027-387-3217,,公立小学校,公立小学校,公立小学校,2015/10/,138.9771019,36.23660756
高崎市立入野小学校,370-2111,高崎市吉井町小串130,027-387-3216,,公立小学校,公立小学校,公立小学校,2015/10/,139.0139106,36.25607266
高崎市立馬庭小学校,370-2104,高崎市吉井町馬庭1033,027-388-3201,,公立小学校,公立小学校,公立小学校,2015/10/,139.0131288,36.26685178
高崎市立南陽台小学校,370-2101,高崎市吉井町南陽台3-16-1,027-388-3321,,公立小学校,公立小学校,公立小学校,2015/10/,139.0003604,36.27358849
高崎市立岩平小学校,370-2138,高崎市吉井町下奥平205-1,027-388-3215,,公立小学校,公立小学校,公立小学校,2015/10/,138.9664008,36.27307528
甘楽町立小幡小学校,370-2202,甘楽町大字小幡846,0274-74-3176,,公立小学校,公立小学校,公立小学校,2015/10/,138.9174605,36.23172365
甘楽町立福島小学校,370-2212,甘楽町大字福島939-1,0274-74-3136,,公立小学校,公立小学校,公立小学校,2015/10/,138.9226132,36.25624265
甘楽町立新屋小学校,370-2217,甘楽町大字天引38-1,0274-74-3174,,公立小学校,公立小学校,公立小学校,2015/10/,138.9498752,36.24924473
伊勢崎市立豊受小学校,372-0842,伊勢崎市馬見塚町1130,0270-32-0280,,公立小学校,公立小学校,公立小学校,2015/10/,139.2110936,36.27483282
伊勢崎市立境剛志小学校,370-0126,伊勢崎市境下武士831,0270-74-0037,,公立小学校,公立小学校,公立小学校,2015/10/,139.2366479,36.27602956
高崎市立新町第一小学校,370-1301,高崎市新町345-1,0274-42-0933,,公立小学校,公立小学校,公立小学校,2015/10/,139.1115764,36.27704415
藤岡市立神流小学校,375-0012,藤岡市下戸塚190,0274-22-2444,,公立小学校,公立小学校,公立小学校,2015/10/,139.0950314,36.25842247
高崎市立新町第二小学校,370-1301,高崎市新町2010-1,0274-42-6251,,公立小学校,公立小学校,公立小学校,2015/10/,139.1022694,36.26506078
伊勢崎市立境小学校,370-0124,伊勢崎市境515,0270-74-0036,,公立小学校,公立小学校,公立小学校,2015/10/,139.2527902,36.27287731
伊勢崎市立境島小学校,370-0134,伊勢崎市境島村1968-40,0270-74-9346,,公立小学校,公立小学校,公立小学校,2015/10/,139.2410189,36.24847275
伊勢崎市立境東小学校,370-0131,伊勢崎市境米岡253-2,0270-74-0327,,公立小学校,公立小学校,公立小学校,2015/10/,139.2618299,36.26780481
太田市立沢野小学校,373-0831,太田市福沢町226-1,0276-38-0455,,公立小学校,公立小学校,公立小学校,2015/10/,139.3557971,36.26729939
太田市立南小学校,373-0825,太田市高林東町1372,0276-38-0202,,公立小学校,公立小学校,公立小学校,2015/10/,139.3762919,36.2557577
太田市立宝泉南小学校,373-0846,太田市中根町261-1,0276-31-0518,,公立小学校,公立小学校,公立小学校,2015/10/,139.3253641,36.27429908
太田市立旭小学校,373-0816,太田市東矢島町1249,0276-46-3463,,公立小学校,公立小学校,公立小学校,2015/10/,139.3852716,36.27271935
太田市立沢野中央小学校,373-0832,太田市富沢町73,0276-30-5521,,公立小学校,公立小学校,公立小学校,2015/10/,139.3579997,36.2640035
太田市立尾島小学校,370-0411,太田市亀岡町甲61-2,0276-52-0019,,公立小学校,公立小学校,公立小学校,2015/10/,139.3197921,36.25744904
太田市立世良田小学校,370-0426,太田市世良田町3113-7,0276-52-1004,,公立小学校,公立小学校,公立小学校,2015/10/,139.276824,36.26171888
大泉町立西小学校,370-0536,大泉町古氷106-1,0276-62-3537,,公立小学校,公立小学校,公立小学校,2015/10/,139.3954962,36.26011444
館林市立第一小学校,374-0064,館林市代官町9-1,0276-72-4438,,公立小学校,公立小学校,公立小学校,2015/10/,139.5338611,36.25347672
館林市立第二小学校,374-0024,館林市本町3-6-1,0276-72-4472,,公立小学校,公立小学校,公立小学校,2015/10/,139.536501,36.24521859
館林市立第三小学校,374-0019,館林市尾曳町14-1,0276-72-4063,,公立小学校,公立小学校,公立小学校,2015/10/,139.5463631,36.24778488
館林市立第六小学校,374-0026,館林市新宿2-15-1,0276-72-4060,,公立小学校,公立小学校,公立小学校,2015/10/,139.5251552,36.23750189
館林市立第七小学校,374-0046,館林市上三林町599,0276-73-4527,,公立小学校,公立小学校,公立小学校,2015/10/,139.4881306,36.21834998
館林市立第八小学校,374-0075,館林市西高根町45-1,0276-72-4026,,公立小学校,公立小学校,公立小学校,2015/10/,139.5118858,36.26298836
館林市立第九小学校,374-0073,館林市足次町172,0276-72-4071,,公立小学校,公立小学校,公立小学校,2015/10/,139.5359394,36.2641174
館林市立第十小学校,374-0042,館林市近藤町178-39,0276-74-8733,,公立小学校,公立小学校,公立小学校,2015/10/,139.5075535,36.24191848
館林市立美園小学校,374-0039,館林市美園町27-1,0276-72-8088,,公立小学校,公立小学校,公立小学校,2015/10/,139.5317443,36.23179306
明和町立明和西小学校,370-0716,明和町川俣26,0276-84-3116,,公立小学校,公立小学校,公立小学校,2015/10/,139.5131527,36.20083933
千代田町立東小学校,370-0726,千代田町上五箇316,0276-86-3225,,公立小学校,公立小学校,公立小学校,2015/10/,139.4656828,36.19941579
千代田町立西小学校,370-0503,千代田町赤岩1755,0276-86-3204,,公立小学校,公立小学校,公立小学校,2015/10/,139.4393008,36.21658719
大泉町立南小学校,370-0533,大泉町仙石2-1-1,0276-62-2227,,公立小学校,公立小学校,公立小学校,2015/10/,139.4006991,36.24341026
大泉町立北小学校,370-0518,大泉町城之内1-21-1,0276-62-2014,,公立小学校,公立小学校,公立小学校,2015/10/,139.4134904,36.25851278
大泉町立東小学校,370-0514,大泉町朝日3-7-1,0276-63-2971,,公立小学校,公立小学校,公立小学校,2015/10/,139.4244086,36.25569478
邑楽町立中野小学校,370-0603,邑楽町中野3021,0276-88-5501,,公立小学校,公立小学校,公立小学校,2015/10/,139.4667278,36.26457304
邑楽町立高島小学校,370-0605,邑楽町藤川379,0276-88-0644,,公立小学校,公立小学校,公立小学校,2015/10/,139.4538469,36.27375602
邑楽町立長柄小学校,370-0615,邑楽町篠塚1278,0276-88-0649,,公立小学校,公立小学校,公立小学校,2015/10/,139.4585095,36.24009699
邑楽町立中野東小学校,370-0602,邑楽町明野51,0276-89-0888,,公立小学校,公立小学校,公立小学校,2015/10/,139.4773337,36.25874994
館林市立第四小学校,374-0001,館林市大島町4355,0276-77-1504,,公立小学校,公立小学校,公立小学校,2015/10/,139.5808399,36.26317626
館林市立第五小学校,374-0011,館林市羽附町乙1565,0276-72-4314,,公立小学校,公立小学校,公立小学校,2015/10/,139.5609786,36.23259162
板倉町立東小学校,374-0111,板倉町海老瀬4822,0276-82-1141,,公立小学校,公立小学校,公立小学校,2015/10/,139.6517251,36.22457204
板倉町立西小学校,374-0133,板倉町岩田971,0276-82-1140,,公立小学校,公立小学校,公立小学校,2015/10/,139.598106,36.22479841
板倉町立南小学校,374-0122,板倉町大高嶋1696,0276-82-1143,,公立小学校,公立小学校,公立小学校,2015/10/,139.6203549,36.20588835
板倉町立北小学校,374-0107,板倉町西岡395,0276-77-0869,,公立小学校,公立小学校,公立小学校,2015/10/,139.6203152,36.26081387
明和町立明和東小学校,370-0705,明和町千津井293,0276-72-4350,,公立小学校,公立小学校,公立小学校,2015/10/,139.561782,36.21112478
高崎市立下室田小学校,370-3342,高崎市下室田町1206,027-374-1271,,公立小学校,公立小学校,公立小学校,2015/10/,138.8874891,36.38628758
高崎市立中室田小学校,370-3347,高崎市中室田町1561-1,027-374-1272,,公立小学校,公立小学校,公立小学校,2015/10/,138.8697847,36.39338177
高崎市立上室田小学校,370-3346,高崎市上室田町4210,027-374-1273,,公立小学校,公立小学校,公立小学校,2015/10/,138.8396328,36.40363186
高崎市立里見小学校,370-3345,高崎市上里見町甲42-2,027-374-1275,,公立小学校,公立小学校,公立小学校,2015/10/,138.8969558,36.37474041
高崎市立宮沢小学校,370-3338,高崎市宮沢町1100-1,027-374-2317,,公立小学校,公立小学校,公立小学校,2015/10/,138.9138357,36.39869599
富岡市立黒岩小学校,370-2341,富岡市下黒岩1870-1,0274-62-0827,,公立小学校,公立小学校,公立小学校,2015/10/,138.8830932,36.28120711
安中市立安中小学校,379-0116,安中市安中3-10-43,027-381-0215,,公立小学校,公立小学校,公立小学校,2015/10/,138.8959772,36.32999112
安中市立原市小学校,379-0133,安中市原市1-10-23,027-385-8258,,公立小学校,公立小学校,公立小学校,2015/10/,138.8582963,36.31515016
安中市立磯部小学校,379-0127,安中市磯部4-12-8,027-385-5965,,公立小学校,公立小学校,公立小学校,2015/10/,138.8638978,36.30497836
安中市立東横野小学校,379-0124,安中市鷺宮3139-2,027-382-5773,,公立小学校,公立小学校,公立小学校,2015/10/,138.8796762,36.29879887
安中市立秋間小学校,379-0102,安中市東上秋間1831,027-381-0494,,公立小学校,公立小学校,公立小学校,2015/10/,138.8541208,36.35284559
安中市立後閑小学校,379-0106,安中市下後閑1999-1,027-385-8178,,公立小学校,公立小学校,公立小学校,2015/10/,138.8417698,36.32729366
富岡市立妙義小学校,379-0209,富岡市妙義町諸戸150,0274-73-2004,,公立小学校,公立小学校,公立小学校,2015/10/,138.7788534,36.28967753
安中市立松井田小学校,379-0222,安中市松井田町松井田953,027-393-1521,,公立小学校,公立小学校,公立小学校,2015/10/,138.7986743,36.31613824
安中市立臼井小学校,379-0302,安中市松井田町五料2196,027-395-2050,,公立小学校,公立小学校,公立小学校,2015/10/,138.7557468,36.32719138
安中市立西横野小学校,379-0223,安中市松井田町二軒在家887,027-393-1127,,公立小学校,公立小学校,公立小学校,2015/10/,138.8125119,36.29981261
安中市立九十九小学校,379-0212,安中市松井田町下増田446,027-393-1123,,公立小学校,公立小学校,公立小学校,2015/10/,138.8159464,36.3254178
富岡市立高田小学校,370-2412,富岡市妙義町下高田1552-1,0274-73-2050,,公立小学校,公立小学校,公立小学校,2015/10/,138.8275395,36.27767679
安中市立細野小学校,379-0216,安中市松井田町新井365,027-393-1322,,公立小学校,公立小学校,公立小学校,2015/10/,138.7783108,36.34715089
前橋市立桃井小学校,371-0026,前橋市大手町2-16-4,027-221-3466,,公立小学校,公立小学校,公立小学校,2015/10/,139.0637999,36.38881479
前橋市立敷島小学校,371-0034,前橋市昭和町1-22-8,027-231-2634,,公立小学校,公立小学校,公立小学校,2015/10/,139.0654901,36.40288325
前橋市立城南小学校,371-0804,前橋市六供町1-13-2,027-221-2789,,公立小学校,公立小学校,公立小学校,2015/10/,139.0741828,36.37556804
前橋市立若宮小学校,371-0032,前橋市若宮町4-12-24,027-231-3881,,公立小学校,公立小学校,公立小学校,2015/10/,139.0712877,36.40600432
前橋市立岩神小学校,371-0035,前橋市岩神町4-4-1,027-231-6162,,公立小学校,公立小学校,公立小学校,2015/10/,139.0561114,36.40763802
前橋市立中央小学校,371-0024,前橋市表町1-22-33,027-221-4612,,公立小学校,公立小学校,公立小学校,2015/10/,139.0691165,36.38508947
前橋市立元総社小学校,371-0846,前橋市元総社町1-33-11,027-251-2181,,公立小学校,公立小学校,公立小学校,2015/10/,139.0385821,36.38642725
前橋市立元総社南小学校,371-0846,前橋市元総社町80-2,027-251-2790,,公立小学校,公立小学校,公立小学校,2015/10/,139.0428548,36.38261772
前橋市立元総社北小学校,371-0852,前橋市総社町総社3149,027-253-0026,,公立小学校,公立小学校,公立小学校,2015/10/,139.0335445,36.39509098
前橋市立大利根小学校,371-0825,前橋市大利根町2-12-1,027-252-8111,,公立小学校,公立小学校,公立小学校,2015/10/,139.0588287,36.36041558
前橋市立新田小学校,371-0821,前橋市上新田町1160,027-252-1833,,公立小学校,公立小学校,公立小学校,2015/10/,139.0671267,36.36207742
高崎市立中央小学校,370-0816,高崎市常盤町48-1,027-322-3575,,公立小学校,公立小学校,公立小学校,2015/10/,138.9989179,36.32787079
高崎市立北小学校,370-0067,高崎市請地町20-2,027-322-3515,,公立小学校,公立小学校,公立小学校,2015/10/,139.0024564,36.33301373
高崎市立南小学校,370-0849,高崎市八島町70-1,027-322-3574,,公立小学校,公立小学校,公立小学校,2015/10/,139.0094867,36.32151223
高崎市立東小学校,370-0051,高崎市弓町121-1,027-322-2621,,公立小学校,公立小学校,公立小学校,2015/10/,139.0098957,36.32983021
高崎市立西小学校,370-0802,高崎市並榎町109-1,027-322-5589,,公立小学校,公立小学校,公立小学校,2015/10/,138.9947082,36.33957213
高崎市立塚沢小学校,370-0063,高崎市飯玉町134-1,027-361-8418,,公立小学校,公立小学校,公立小学校,2015/10/,139.0164778,36.34017872
高崎市立片岡小学校,370-0862,高崎市片岡町2-12-1,027-322-5052,,公立小学校,公立小学校,公立小学校,2015/10/,138.9974294,36.31583991
高崎市立寺尾小学校,370-0865,高崎市寺尾町290,027-325-3125,,公立小学校,公立小学校,公立小学校,2015/10/,139.0072633,36.3026546
高崎市立佐野小学校,370-0857,高崎市上佐野町918-2,027-322-8497,,公立小学校,公立小学校,公立小学校,2015/10/,139.0250183,36.30851079
高崎市立六郷小学校,370-0075,高崎市筑縄町32-2,027-361-8819,,公立小学校,公立小学校,公立小学校,2015/10/,138.9873733,36.35357447
高崎市立城南小学校,370-0845,高崎市新後閑町301-1,027-322-5387,,公立小学校,公立小学校,公立小学校,2015/10/,139.0119045,36.31079534
高崎市立城東小学校,370-0046,高崎市江木町128-1,027-322-5438,,公立小学校,公立小学校,公立小学校,2015/10/,139.021201,36.32667065
高崎市立新高尾小学校,370-0002,高崎市日高町592-1,027-362-5295,,公立小学校,公立小学校,公立小学校,2015/10/,139.0369053,36.36453115
高崎市立中川小学校,370-0071,高崎市小八木町1860-1,027-361-8410,,公立小学校,公立小学校,公立小学校,2015/10/,139.0150327,36.36433427
高崎市立八幡小学校,370-0884,高崎市八幡町179-1,027-322-4482,,公立小学校,公立小学校,公立小学校,2015/10/,138.95132,36.3361649
高崎市立豊岡小学校,370-0874,高崎市中豊岡町24,027-322-6240,,公立小学校,公立小学校,公立小学校,2015/10/,138.9749304,36.33495024
高崎市立長野小学校,370-0083,高崎市南新波町77,027-343-2908,,公立小学校,公立小学校,公立小学校,2015/10/,138.971341,36.36374249
高崎市立大類小学校,370-0036,高崎市南大類町543-1,027-352-2921,,公立小学校,公立小学校,公立小学校,2015/10/,139.0455409,36.32415375
高崎市立南八幡小学校,370-1213,高崎市山名町24-1,027-346-2354,,公立小学校,公立小学校,公立小学校,2015/10/,139.0387946,36.28106049
高崎市立倉賀野小学校,370-1201,高崎市倉賀野町1744,027-346-2209,,公立小学校,公立小学校,公立小学校,2015/10/,139.0481688,36.30000321
高崎市立岩鼻小学校,370-1206,高崎市台新田町1,027-346-1420,,公立小学校,公立小学校,公立小学校,2015/10/,139.0700446,36.30244972
高崎市立東部小学校,370-0031,高崎市上大類町1372,027-362-2932,,公立小学校,公立小学校,公立小学校,2015/10/,139.0307425,36.3422831
高崎市立中居小学校,370-0852,高崎市中居町3-28-1,027-352-2700,,公立小学校,公立小学校,公立小学校,2015/10/,139.0409649,36.31632005
高崎市立北部小学校,370-0076,高崎市下小塙町719-1,027-343-2556,,公立小学校,公立小学校,公立小学校,2015/10/,138.9738657,36.35107353
高崎市立西部小学校,370-0884,高崎市八幡町1414,027-343-2545,,公立小学校,公立小学校,公立小学校,2015/10/,138.9433854,36.34788989
高崎市立乗附小学校,370-0867,高崎市乗附町155-1,027-322-1871,,公立小学校,公立小学校,公立小学校,2015/10/,138.9851329,36.32651509
高崎市立浜尻小学校,370-0005,高崎市浜尻町210-1,027-361-7028,,公立小学校,公立小学校,公立小学校,2015/10/,139.0140759,36.35071155
高崎市立矢中小学校,370-1203,高崎市矢中町160-1,027-352-2937,,公立小学校,公立小学校,公立小学校,2015/10/,139.0483331,36.31045501
高崎市立城山小学校,370-0866,高崎市城山町2-16-1,027-323-7111,,公立小学校,公立小学校,公立小学校,2015/10/,139.0136059,36.28597467
高崎市立鼻高小学校,370-0868,高崎市鼻高町58-2,027-322-8691,,公立小学校,公立小学校,公立小学校,2015/10/,138.9391286,36.33243312
高崎市立堤ヶ岡小学校,370-3521,高崎市棟高町2227-1,027-373-2236,,公立小学校,公立小学校,公立小学校,2015/10/,139.0016749,36.3786568
高崎市立久留馬小学校,370-3333,高崎市高浜町2321-1,027-343-1199,,公立小学校,公立小学校,公立小学校,2015/10/,138.9317846,36.36961855
高崎市立下里見小学校,370-3343,高崎市下里見町380,027-343-1277,,公立小学校,公立小学校,公立小学校,2015/10/,138.9190246,36.363476
富岡市立小野小学校,370-2306,富岡市相野田711-2,0274-62-3004,,公立小学校,公立小学校,公立小学校,2015/10/,138.9214988,36.28600368
安中市立碓東小学校,379-0112,安中市岩井62,027-382-4325,,公立小学校,公立小学校,公立小学校,2015/10/,138.9267375,36.33090122
教育学部附属小学校,371-0032,前橋市若宮町2-8-1,027-231-5725,,公立小学校,公立小学校,公立小学校,2015/10/,139.0753395,36.40101584
高崎市立箕輪小学校,370-3105,高崎市箕郷町西明屋196-1,027-371-3555,,公立小学校,公立小学校,公立小学校,2015/10/,138.954404,36.39869296
高崎市立箕郷東小学校,370-3102,高崎市箕郷町生原922-2,027-371-3351,,公立小学校,公立小学校,公立小学校,2015/10/,138.9684081,36.40162674
高崎市立金古小学校,370-3511,高崎市金古町1271-1,027-373-2233,,公立小学校,公立小学校,公立小学校,2015/10/,138.9992493,36.40725717
高崎市立国府小学校,370-3518,高崎市後疋間町184-1,027-373-2237,,公立小学校,公立小学校,公立小学校,2015/10/,139.0165406,36.39506527
高崎市立金古南小学校,370-3511,高崎市金古町658,027-373-2264,,公立小学校,公立小学校,公立小学校,2015/10/,138.9941458,36.4017979
高崎市立車郷小学校,370-3115,高崎市箕郷町富岡255-1,027-371-3259,,公立小学校,公立小学校,公立小学校,2015/10/,138.9491159,36.39030094
高崎市立上郊小学校,370-3533,高崎市保渡田町2107-1,027-373-2238,,公立小学校,公立小学校,公立小学校,2015/10/,138.983596,36.38817506
高崎市立桜山小学校,370-3521,高崎市棟高町2489-1,027-373-9195,,公立小学校,公立小学校,公立小学校,2015/10/,139.0062414,36.37242572
前橋市立中川小学校,371-0015,前橋市三河町2-1-3,027-224-3819,,公立小学校,公立小学校,公立小学校,2015/10/,139.0784923,36.38660127
前橋市立城東小学校,371-0016,前橋市城東町1-35-7,027-231-2251,,公立小学校,公立小学校,公立小学校,2015/10/,139.0795654,36.39481898
前橋市立天川小学校,371-0801,前橋市文京町3-18-4,027-221-5991,,公立小学校,公立小学校,公立小学校,2015/10/,139.0852507,36.37899878
前橋市立広瀬小学校,371-0812,前橋市広瀬町3-19,027-263-2236,,公立小学校,公立小学校,公立小学校,2015/10/,139.1137419,36.35726041
前橋市立山王小学校,379-2123,前橋市山王町160-1,027-266-5171,,公立小学校,公立小学校,公立小学校,2015/10/,139.1243695,36.34878472
前橋市立朝倉小学校,371-0811,前橋市朝倉町165-1,027-261-7775,,公立小学校,公立小学校,公立小学校,2015/10/,139.0961617,36.36683015
前橋市立天神小学校,371-0813,前橋市後閑町50-4,027-265-3312,,公立小学校,公立小学校,公立小学校,2015/10/,139.0987964,36.36272967
前橋市立上川淵小学校,371-0811,前橋市朝倉町466,027-265-0650,,公立小学校,公立小学校,公立小学校,2015/10/,139.090867,36.3583295
前橋市立下川淵小学校,379-2141,前橋市鶴光路町38-1,027-265-0656,,公立小学校,公立小学校,公立小学校,2015/10/,139.0943354,36.33598044
前橋市立桂萱小学校,371-0007,前橋市上泉町178,027-231-3015,,公立小学校,公立小学校,公立小学校,2015/10/,139.1046031,36.39615908
前橋市立桃木小学校,371-0052,前橋市上沖町732-1,027-233-2963,,公立小学校,公立小学校,公立小学校,2015/10/,139.090782,36.40366942
前橋市立桂萱東小学校,371-0003,前橋市堤町471,027-269-0935,,公立小学校,公立小学校,公立小学校,2015/10/,139.1294287,36.39797541
前橋市立桃瀬小学校,371-0013,前橋市西片貝町3-343,027-224-5790,,公立小学校,公立小学校,公立小学校,2015/10/,139.101354,36.38628345
前橋市立永明小学校,379-2153,前橋市上大島町655,027-261-0409,,公立小学校,公立小学校,公立小学校,2015/10/,139.1220731,36.36907069
前橋市立駒形小学校,379-2122,前橋市駒形町1172,027-266-0028,,公立小学校,公立小学校,公立小学校,2015/10/,139.1360832,36.34723308
前橋市立荒子小学校,379-2106,前橋市荒子町1240,027-268-2913,,公立小学校,公立小学校,公立小学校,2015/10/,139.1643013,36.3880983
前橋市立大室小学校,379-2104,前橋市西大室町2817,027-268-2900,,公立小学校,公立小学校,公立小学校,2015/10/,139.1922114,36.38407652
前橋市立二之宮小学校,379-2117,前橋市二之宮町1841,027-268-2251,,公立小学校,公立小学校,公立小学校,2015/10/,139.1678221,36.36252561
前橋市立笂井小学校,379-2115,前橋市笂井町1160,027-266-0068,,公立小学校,公立小学校,公立小学校,2015/10/,139.1389318,36.36103481
伊勢崎市立北小学校,372-0055,伊勢崎市曲輪町28-24,0270-25-4450,,公立小学校,公立小学校,公立小学校,2015/10/,139.1913626,36.32263802
伊勢崎市立南小学校,372-0045,伊勢崎市上泉町310,0270-25-4452,,公立小学校,公立小学校,公立小学校,2015/10/,139.1943801,36.3134849
伊勢崎市立殖蓮小学校,372-0013,伊勢崎市上植木本町2763,0270-25-4440,,公立小学校,公立小学校,公立小学校,2015/10/,139.2115493,36.33399407
伊勢崎市立茂呂小学校,372-0034,伊勢崎市茂呂町2-2169-1,0270-25-4441,,公立小学校,公立小学校,公立小学校,2015/10/,139.2079375,36.303316
伊勢崎市立三郷小学校,372-0001,伊勢崎市波志江町1620,0270-25-4442,,公立小学校,公立小学校,公立小学校,2015/10/,139.1840988,36.34326938
伊勢崎市立宮郷小学校,372-0802,伊勢崎市田中島町1475-4,0270-25-4443,,公立小学校,公立小学校,公立小学校,2015/10/,139.1632854,36.31956133
伊勢崎市立名和小学校,372-0834,伊勢崎市堀口町502-1,0270-32-0072,,公立小学校,公立小学校,公立小学校,2015/10/,139.1810342,36.2907107
伊勢崎市立北第二小学校,372-0053,伊勢崎市宗高町125,0270-25-4454,,公立小学校,公立小学校,公立小学校,2015/10/,139.2003678,36.32876047
伊勢崎市立殖蓮第二小学校,372-0024,伊勢崎市下植木町1203,0270-25-3617,,公立小学校,公立小学校,公立小学校,2015/10/,139.2149782,36.32378307
伊勢崎市立広瀬小学校,372-0038,伊勢崎市新栄町4074-1,0270-25-4453,,公立小学校,公立小学校,公立小学校,2015/10/,139.1921889,36.30347426
伊勢崎市立坂東小学校,372-0832,伊勢崎市除ヶ町422,0270-32-7077,,公立小学校,公立小学校,公立小学校,2015/10/,139.1896107,36.2802582
伊勢崎市立宮郷第二小学校,372-0812,伊勢崎市連取町3069-1,0270-40-5110,,公立小学校,公立小学校,公立小学校,2015/10/,139.1754228,36.31762809
伊勢崎市立赤堀小学校,379-2204,伊勢崎市西久保町1-72,0270-62-0049,,公立小学校,公立小学校,公立小学校,2015/10/,139.2282287,36.37948148
伊勢崎市立赤堀南小学校,379-2212,伊勢崎市堀下町264-1,0270-63-0055,,公立小学校,公立小学校,公立小学校,2015/10/,139.2130712,36.36706876
玉村町立玉村小学校,370-1132,玉村町下新田99-1,0270-65-2304,,公立小学校,公立小学校,公立小学校,2015/10/,139.1109725,36.30471903
玉村町立上陽小学校,370-1103,玉村町樋越921-1,0270-65-2350,,公立小学校,公立小学校,公立小学校,2015/10/,139.1243831,36.32214033
玉村町立芝根小学校,370-1116,玉村町飯倉39,0270-65-2650,,公立小学校,公立小学校,公立小学校,2015/10/,139.1525231,36.29245832
玉村町立中央小学校,370-1105,玉村町福島401,0270-65-5609,,公立小学校,公立小学校,公立小学校,2015/10/,139.1242222,36.30546732
玉村町立南小学校,370-1124,玉村町角淵5011,0270-65-9000,,公立小学校,公立小学校,公立小学校,2015/10/,139.1151626,36.29272252
高崎市立滝川小学校,370-0026,高崎市下滝町585-2,027-352-2929,,公立小学校,公立小学校,公立小学校,2015/10/,139.0840578,36.31181009
伊勢崎市立赤堀東小学校,379-2206,伊勢崎市香林町1-260-2,0270-20-2811,,公立小学校,公立小学校,公立小学校,2015/10/,139.2462548,36.38560646
伊勢崎市立あずま小学校,379-2231,伊勢崎市東町2770,0270-62-7000,,公立小学校,公立小学校,公立小学校,2015/10/,139.2417956,36.34507971
伊勢崎市立あずま南小学校,379-2235,伊勢崎市三室町4290,0270-62-0132,,公立小学校,公立小学校,公立小学校,2015/10/,139.2435221,36.3289491
伊勢崎市立あずま北小学校,379-2221,伊勢崎市国定町2-1627,0270-63-1333,,公立小学校,公立小学校,公立小学校,2015/10/,139.2456878,36.35997702
伊勢崎市立境采女小学校,370-0103,伊勢崎市境下淵名2020,0270-76-0010,,公立小学校,公立小学校,公立小学校,2015/10/,139.238255,36.29929866
桐生市立南小学校,376-0006,桐生市新宿2-7-1,0277-44-2435,,公立小学校,公立小学校,公立小学校,2015/10/,139.339007,36.39979091
桐生市立境野小学校,376-0002,桐生市境野町6-1616-1,0277-45-2648,,公立小学校,公立小学校,公立小学校,2015/10/,139.3533693,36.38438888
桐生市立広沢小学校,376-0013,桐生市広沢町4-2044-2,0277-52-2028,,公立小学校,公立小学校,公立小学校,2015/10/,139.3382086,36.38101517
桐生市立桜木小学校,376-0011,桐生市相生町1-383,0277-53-1400,,公立小学校,公立小学校,公立小学校,2015/10/,139.3189601,36.39922179
桐生市立天沼小学校,376-0011,桐生市相生町5-713-1,0277-52-5600,,公立小学校,公立小学校,公立小学校,2015/10/,139.2955871,36.40806414
桐生市立神明小学校,376-0013,桐生市広沢町2-3242-1,0277-53-1101,,公立小学校,公立小学校,公立小学校,2015/10/,139.3210213,36.38920733
太田市立太田小学校,373-0057,太田市本町31-1,0276-22-3300,,公立小学校,公立小学校,公立小学校,2015/10/,139.3732468,36.29847631
太田市立九合小学校,373-0817,太田市飯塚町1534,0276-45-3301,,公立小学校,公立小学校,公立小学校,2015/10/,139.3843635,36.28243553
太田市立鳥之郷小学校,373-0008,太田市鶴生田町83-2,0276-22-3303,,公立小学校,公立小学校,公立小学校,2015/10/,139.3580238,36.31303268
太田市立太田東小学校,373-0026,太田市東本町53-30,0276-22-3304,,公立小学校,公立小学校,公立小学校,2015/10/,139.380411,36.30189157
太田市立強戸小学校,373-0051,太田市天良町858-2,0276-37-0429,,公立小学校,公立小学校,公立小学校,2015/10/,139.3381659,36.33319894
太田市立宝泉小学校,373-0036,太田市由良町1738-1,0276-31-2442,,公立小学校,公立小学校,公立小学校,2015/10/,139.3359205,36.28896286
太田市立毛里田小学校,373-0011,太田市只上町970-1,0276-37-1154,,公立小学校,公立小学校,公立小学校,2015/10/,139.3899241,36.33796376
太田市立中央小学校,373-0851,太田市飯田町1166,0276-45-8920,,公立小学校,公立小学校,公立小学校,2015/10/,139.3814734,36.29089414
太田市立宝泉東小学校,373-0035,太田市藤久良町1,0276-31-2422,,公立小学校,公立小学校,公立小学校,2015/10/,139.3529114,36.29326475
太田市立韮川西小学校,373-0811,太田市安良岡町51,0276-25-5946,,公立小学校,公立小学校,公立小学校,2015/10/,139.3949881,36.30659701
太田市立城西小学校,373-0032,太田市新野町127,0276-31-5610,,公立小学校,公立小学校,公立小学校,2015/10/,139.3477864,36.30909641
太田市立木崎小学校,370-0321,太田市新田木崎町1121,0276-56-0024,,公立小学校,公立小学校,公立小学校,2015/10/,139.3044242,36.2812907
太田市立生品小学校,370-0312,太田市新田村田町1365,0276-57-1054,,公立小学校,公立小学校,公立小学校,2015/10/,139.3138504,36.3154417
太田市立綿打小学校,370-0346,太田市新田上田中町795-3,0276-57-1067,,公立小学校,公立小学校,公立小学校,2015/10/,139.2785232,36.30856002
太田市立藪塚本町小学校,379-2301,太田市藪塚町1741,0277-78-2433,,公立小学校,公立小学校,公立小学校,2015/10/,139.2984482,36.35911071
太田市立藪塚本町南小学校,379-2304,太田市大原町2201-1,0277-78-6088,,公立小学校,公立小学校,公立小学校,2015/10/,139.2821379,36.34412608
みどり市立笠懸東小学校,379-2311,みどり市笠懸町阿左美1010,0277-76-6167,,公立小学校,公立小学校,公立小学校,2015/10/,139.3082217,36.38482495
みどり市立笠懸小学校,379-2313,みどり市笠懸町鹿346,0277-76-2100,,公立小学校,公立小学校,公立小学校,2015/10/,139.2809072,36.39296891
みどり市立笠懸北小学校,379-2311,みどり市笠懸町阿左美3730,0277-76-6833,,公立小学校,公立小学校,公立小学校,2015/10/,139.2908762,36.40496718
太田市立韮川小学校,373-0801,太田市台之郷町999,0276-45-3302,,公立小学校,公立小学校,公立小学校,2015/10/,139.402964,36.30423182
太田市立休泊小学校,373-0806,太田市龍舞町3816-3,0276-45-5841,,公立小学校,公立小学校,公立小学校,2015/10/,139.4161581,36.28368469
太田市立駒形小学校,373-0014,太田市植木野町7,0276-46-9421,,公立小学校,公立小学校,公立小学校,2015/10/,139.4145097,36.31436395
長野原町立応桑小学校,377-1411,長野原町大字応桑20-2,0279-85-2002,,公立小学校,公立小学校,公立小学校,2015/10/,138.5959441,36.51111278
長野原町立北軽井沢小学校,377-1412,長野原町大字北軽井沢1924,0279-84-3010,,公立小学校,公立小学校,公立小学校,2015/10/,138.59349,36.46182177
東吾妻町立坂上小学校,377-0933,東吾妻町本宿401-1,0279-69-2005,,公立小学校,公立小学校,公立小学校,2015/10/,138.7525945,36.50979528
前橋市立総社小学校,371-0852,前橋市総社町総社1625,027-251-6662,,公立小学校,公立小学校,公立小学校,2015/10/,139.0379205,36.4091454
前橋市立勝山小学校,371-0851,前橋市総社町植野123,027-253-2456,,公立小学校,公立小学校,公立小学校,2015/10/,139.0416865,36.41431534
前橋市立桃川小学校,371-0044,前橋市荒牧町1-46-11,027-231-1779,,公立小学校,公立小学校,公立小学校,2015/10/,139.054948,36.43051867
前橋市立荒牧小学校,371-0044,前橋市荒牧町4-9-2,027-233-3080,,公立小学校,公立小学校,公立小学校,2015/10/,139.047989,36.4282
前橋市立清里小学校,370-3573,前橋市青梨子町446,027-251-9006,,公立小学校,公立小学校,公立小学校,2015/10/,139.0122685,36.41729784
渋川市立渋川北小学校,377-0008,渋川市渋川681-2,0279-22-2544,,公立小学校,公立小学校,公立小学校,2015/10/,139.0005653,36.50053985
渋川市立渋川南小学校,377-0008,渋川市渋川2573-1,0279-23-0373,,公立小学校,公立小学校,公立小学校,2015/10/,138.9984869,36.49417697
渋川市立金島小学校,377-0027,渋川市金井2310,0279-22-2543,,公立小学校,公立小学校,公立小学校,2015/10/,138.9808525,36.51991299
渋川市立古巻小学校,377-0003,渋川市八木原852,0279-22-2542,,公立小学校,公立小学校,公立小学校,2015/10/,139.013071,36.46456159
渋川市立豊秋小学校,377-0007,渋川市石原1001,0279-22-2541,,公立小学校,公立小学校,公立小学校,2015/10/,139.0006091,36.48536537
渋川市立渋川西小学校,377-0027,渋川市金井2817,0279-24-2876,,公立小学校,公立小学校,公立小学校,2015/10/,138.9867275,36.50407312
渋川市立橘北小学校,377-0064,渋川市北橘町八崎995,0279-23-3001,,公立小学校,公立小学校,公立小学校,2015/10/,139.0228779,36.4897964
前橋市立原小学校,371-0116,前橋市富士見町原之郷1933-1,027-288-2022,,公立小学校,公立小学校,公立小学校,2015/10/,139.066243,36.4463754
榛東村立北小学校,370-3502,榛東村山子田1261,0279-54-3216,,公立小学校,公立小学校,公立小学校,2015/10/,138.9806845,36.44173495
榛東村立南小学校,370-3504,榛東村広馬場1142,0279-54-5727,,公立小学校,公立小学校,公立小学校,2015/10/,138.9753261,36.42684274
吉岡町立明治小学校,370-3605,吉岡町北下433,0279-54-2105,,公立小学校,公立小学校,公立小学校,2015/10/,138.999564,36.44645609
吉岡町立駒寄小学校,370-3601,吉岡町漆原1016,0279-54-2300,,公立小学校,公立小学校,公立小学校,2015/10/,139.0250185,36.43899677
渋川市立橘小学校,377-0062,渋川市北橘町真壁524,0279-52-3004,,公立小学校,公立小学校,公立小学校,2015/10/,139.0433709,36.48018184
渋川市立三原田小学校,379-1125,渋川市赤城町上三原田851-1,0279-56-2320,,公立小学校,公立小学校,公立小学校,2015/10/,139.0453708,36.51014614
渋川市立刀川小学校,379-1123,渋川市赤城町見立299,0279-56-2200,,公立小学校,公立小学校,公立小学校,2015/10/,139.0335807,36.51748369
渋川市立中郷小学校,377-0202,渋川市中郷2626,0279-53-3516,,公立小学校,公立小学校,公立小学校,2015/10/,139.01088,36.53393234
渋川市立長尾小学校,377-0205,渋川市北牧85,0279-53-3607,,公立小学校,公立小学校,公立小学校,2015/10/,138.9979482,36.52412557
渋川市立伊香保小学校,377-0102,渋川市伊香保町伊香保322-1,0279-72-2032,,公立小学校,公立小学校,公立小学校,2015/10/,138.9246183,36.50433754
前橋市立芳賀小学校,371-0124,前橋市勝沢町719,027-269-5826,,公立小学校,公立小学校,公立小学校,2015/10/,139.1052976,36.42338199
前橋市立細井小学校,371-0054,前橋市下細井町67-1,027-231-1780,,公立小学校,公立小学校,公立小学校,2015/10/,139.0753341,36.41597539
前橋市立大胡小学校,371-0231,前橋市堀越町1161,027-283-2064,,公立小学校,公立小学校,公立小学校,2015/10/,139.1566009,36.41714504
前橋市立滝窪小学校,371-0235,前橋市滝窪町185-1,027-283-2056,,公立小学校,公立小学校,公立小学校,2015/10/,139.1381343,36.43562363
前橋市立大胡東小学校,371-0224,前橋市河原浜町870-1,027-280-2332,,公立小学校,公立小学校,公立小学校,2015/10/,139.1659852,36.41966711
前橋市立宮城小学校,371-0244,前橋市鼻毛石町1507-1,027-283-2327,,公立小学校,公立小学校,公立小学校,2015/10/,139.1782683,36.43917446
前橋市立粕川小学校,371-0214,前橋市粕川町女渕521-2,027-285-2004,,公立小学校,公立小学校,公立小学校,2015/10/,139.2091962,36.41184601
前橋市立月田小学校,371-0203,前橋市粕川町月田273,027-285-2011,,公立小学校,公立小学校,公立小学校,2015/10/,139.2110559,36.43303101
前橋市立時沢小学校,371-0104,前橋市富士見町時沢3164-1,027-288-2009,,公立小学校,公立小学校,公立小学校,2015/10/,139.0929486,36.44054828
前橋市立石井小学校,371-0105,前橋市富士見町石井546-1,027-288-2615,,公立小学校,公立小学校,公立小学校,2015/10/,139.0831225,36.46786475
前橋市立白川小学校,371-0103,前橋市富士見町小暮2425-63,027-288-2624,,公立小学校,公立小学校,公立小学校,2015/10/,139.1087807,36.46841289
桐生市立新里北小学校,376-0133,桐生市新里町大久保302,0277-74-3452,,公立小学校,公立小学校,公立小学校,2015/10/,139.2331115,36.45036397
桐生市立東小学校,376-0035,桐生市仲町2-4-21,0277-45-2432,,公立小学校,公立小学校,公立小学校,2015/10/,139.3426518,36.41058795
桐生市立西小学校,376-0043,桐生市小曽根町1-9,0277-22-3171,,公立小学校,公立小学校,公立小学校,2015/10/,139.3372715,36.41474175
桐生市立北小学校,376-0054,桐生市西久方町2-1-5,0277-22-3173,,公立小学校,公立小学校,公立小学校,2015/10/,139.3413221,36.41827663
桐生市立梅田南小学校,376-0601,桐生市梅田町2-179,0277-32-1400,,公立小学校,公立小学校,公立小学校,2015/10/,139.3805104,36.4525034
桐生市立相生小学校,376-0011,桐生市相生町2-420,0277-54-4785,,公立小学校,公立小学校,公立小学校,2015/10/,139.309893,36.41358547
桐生市立菱小学校,376-0001,桐生市菱町2-1919-1,0277-44-4342,,公立小学校,公立小学校,公立小学校,2015/10/,139.3570526,36.41279557
桐生市立新里中央小学校,376-0124,桐生市新里町小林甲60,0277-74-8449,,公立小学校,公立小学校,公立小学校,2015/10/,139.2372598,36.42182931
桐生市立新里東小学校,376-0121,桐生市新里町新川2072,0277-74-3115,,公立小学校,公立小学校,公立小学校,2015/10/,139.2568438,36.42146369
桐生市立黒保根小学校,376-0141,桐生市黒保根町水沼400,0277-96-2508,,公立小学校,公立小学校,公立小学校,2015/10/,139.285091,36.50736825
みどり市立大間々南小学校,376-0101,みどり市大間々町大間々884,0277-72-1274,,公立小学校,公立小学校,公立小学校,2015/10/,139.2722348,36.4282589
みどり市立大間々北小学校,376-0102,みどり市大間々町桐原653,0277-72-1771,,公立小学校,公立小学校,公立小学校,2015/10/,139.2743509,36.44199767
みどり市立大間々東小学校,376-0101,みどり市大間々町大間々456-1,0277-73-1733,,公立小学校,公立小学校,公立小学校,2015/10/,139.28461,36.41978551
みどり市立福岡中央小学校,376-0114,みどり市大間々町浅原1500-2,0277-72-1264,,公立小学校,公立小学校,公立小学校,2015/10/,139.2913972,36.46001355
みどり市立あずま小学校,379-0304,みどり市東町神戸10,0277-97-3800,,公立小学校,公立小学校,公立小学校,2015/10/,139.3516294,36.53859387
桐生市立川内小学校,376-0041,桐生市川内町3-572,0277-65-9021,,公立小学校,公立小学校,公立小学校,2015/10/,139.3050393,36.43298158
長野原町立中央小学校,377-1308,長野原町大字大津4,0279-82-2026,,公立小学校,公立小学校,公立小学校,2015/10/,138.626556,36.55423337
長野原町立第一小学校,377-1309,長野原町大字林1394-5,0279-82-2145,,公立小学校,公立小学校,公立小学校,2015/10/,138.6803681,36.54756039
草津町立草津小学校,377-1711,草津町大字草津3-1,0279-88-2156,,公立小学校,公立小学校,公立小学校,2015/10/,138.5906186,36.61696373
中之条町立六合小学校,377-1704,中之条町大字小雨599-1,0279-95-3571,,公立小学校,公立小学校,公立小学校,2015/10/,138.6270482,36.59712921
中之条町立中之条小学校,377-0423,中之条町大字伊勢町1035-1,0279-75-2130,,公立小学校,公立小学校,公立小学校,2015/10/,138.8515646,36.58914359
東吾妻町立太田小学校,377-0805,東吾妻町植栗1104,0279-68-2389,,公立小学校,公立小学校,公立小学校,2015/10/,138.8638919,36.57484474
東吾妻町立原町小学校,377-0801,東吾妻町原町5228,0279-68-2016,,公立小学校,公立小学校,公立小学校,2015/10/,138.8272028,36.57722693
東吾妻町立岩島小学校,377-0815,東吾妻町岩下46,0279-67-2039,,公立小学校,公立小学校,公立小学校,2015/10/,138.7716056,36.55462168
高山村立高山小学校,377-0702,高山村大字中山2795,0279-63-2001,,公立小学校,公立小学校,公立小学校,2015/10/,138.9467144,36.62175485
沼田市立沼田小学校,378-0042,沼田市西倉内町746,0278-22-2063,,公立小学校,公立小学校,公立小学校,2015/10/,139.0429085,36.64699465
沼田市立沼田東小学校,378-0053,沼田市東原新町1801-1,0278-23-1118,,公立小学校,公立小学校,公立小学校,2015/10/,139.0623414,36.6502264
沼田市立沼田北小学校,378-0056,沼田市高橋場町4898,0278-24-4123,,公立小学校,公立小学校,公立小学校,2015/10/,139.0644236,36.65683241
沼田市立升形小学校,378-0014,沼田市栄町141,0278-22-3107,,公立小学校,公立小学校,公立小学校,2015/10/,139.0484116,36.63311701
沼田市立薄根小学校,378-0064,沼田市善桂寺町32,0278-22-2891,,公立小学校,公立小学校,公立小学校,2015/10/,139.0368337,36.6622802
沼田市立川田小学校,378-0024,沼田市下川田町540,0278-22-3056,,公立小学校,公立小学校,公立小学校,2015/10/,139.033088,36.62996453
昭和村立南小学校,379-1205,昭和村川額123,0278-24-6002,,公立小学校,公立小学校,公立小学校,2015/10/,139.0467918,36.61574732
渋川市立津久田小学校,379-1103,渋川市赤城町津久田1905,0279-56-2004,,公立小学校,公立小学校,公立小学校,2015/10/,139.0447421,36.54754896
渋川市立南雲小学校,379-1102,渋川市赤城町長井小川田1435,0279-56-2911,,公立小学校,公立小学校,公立小学校,2015/10/,139.0688062,36.56335209
渋川市立小野上小学校,377-0311,渋川市村上3767-1,0279-59-2031,,公立小学校,公立小学校,公立小学校,2015/10/,138.9395723,36.54852729
東吾妻町立東小学校,377-0301,東吾妻町箱島1596-1,0279-59-3014,,公立小学校,公立小学校,公立小学校,2015/10/,138.921159,36.54585013
沼田市立利南東小学校,378-0003,沼田市上久屋町2135,0278-22-3006,,公立小学校,公立小学校,公立小学校,2015/10/,139.0890128,36.65741312
沼田市立白沢小学校,378-0121,沼田市白沢町高平94-1,0278-53-2151,,公立小学校,公立小学校,公立小学校,2015/10/,139.1350021,36.66362566
沼田市立多那小学校,378-0317,沼田市利根町多那732,0278-53-2919,,公立小学校,公立小学校,公立小学校,2015/10/,139.1461995,36.63801922
昭和村立東小学校,379-1203,昭和村糸井1287,0278-22-2516,,公立小学校,公立小学校,公立小学校,2015/10/,139.0757467,36.64375937
昭和村立大河原小学校,379-1203,昭和村糸井5455-354,0278-24-7166,,公立小学校,公立小学校,公立小学校,2015/10/,139.1148088,36.61978866
沼田市立池田小学校,378-0073,沼田市発知新田町533,0278-23-9320,,公立小学校,公立小学校,公立小学校,2015/10/,139.0633742,36.69631208
みなかみ町立古馬牧小学校,379-1305,みなかみ町後閑1064,0278-62-2414,,公立小学校,公立小学校,公立小学校,2015/10/,139.0000478,36.68312611
みなかみ町立桃野小学校,379-1313,みなかみ町月夜野583,0278-62-2416,,公立小学校,公立小学校,公立小学校,2015/10/,138.9870559,36.68460634
みなかみ町立月夜野北小学校,379-1303,みなかみ町上牧880,0278-72-3352,,公立小学校,公立小学校,公立小学校,2015/10/,138.9811957,36.72848469
みなかみ町立水上小学校,379-1617,みなかみ町湯原968,0278-72-2054,,公立小学校,公立小学校,公立小学校,2015/10/,138.9684214,36.76680008
みなかみ町立新治小学校,379-1411,みなかみ町新巻208,0278-64-0023,,公立小学校,公立小学校,公立小学校,2015/10/,138.9353897,36.6841034
沼田市立利根東小学校,378-0303,沼田市利根町追貝93,0278-56-3016,,公立小学校,公立小学校,公立小学校,2015/10/,139.209007,36.70012138
沼田市立平川小学校,378-0301,沼田市利根町平川839,0278-56-2009,,公立小学校,公立小学校,公立小学校,2015/10/,139.2225642,36.72236835
沼田市立利根西小学校,378-0323,沼田市利根町大原1025,0278-56-2267,,公立小学校,公立小学校,公立小学校,2015/10/,139.200992,36.67561571
片品村立片品小学校,378-0412,片品村大字土出1957,0278-58-7303,,公立小学校,公立小学校,公立小学校,2015/10/,139.2269155,36.77254517
片品村立片品南小学校,378-0408,片品村大字花咲2118,0278-58-3521,,公立小学校,公立小学校,公立小学校,2015/10/,139.1897142,36.75165289
片品村立武尊根小学校,378-0406,片品村大字摺渕307,0278-58-2043,,公立小学校,公立小学校,公立小学校,2015/10/,139.218979,36.73688745
川場村立川場小学校,378-0101,川場村大字谷地2402,0278-52-2012,,公立小学校,公立小学校,公立小学校,2015/10/,139.1062947,36.69565084
みなかみ町立藤原小学校,379-1721,みなかみ町藤原3491,0278-75-2102,,公立小学校,公立小学校,公立小学校,2015/10/,139.0605743,36.83730493
高崎市立京ケ島小学校,370-0011,高崎市京目町44-1,027-352-2925,,公立小学校,公立小学校,公立小学校,2015/10/,139.0643718,36.3404658
高崎市立倉渕小学校,370-3401,高崎市倉渕町権田314-1,027-378-3218,,公立小学校,公立小学校,公立小学校,2015/10/,138.7727076,36.44695194
前橋市立東小学校,371-0837,前橋市箱田町1452-1,027-251-6421,,公立小学校,公立小学校,公立小学校,2015/10/,139.0525945,36.36583585
嬬恋村立西部小学校,377-1612,嬬恋村大字大前805-1,0279-96-0013,,公立小学校,公立小学校,公立小学校,2015/10/,138.5151881,36.51189536
嬬恋村立東部小学校,377-1526,嬬恋村大字三原679-3,0279-97-3026,,公立小学校,公立小学校,公立小学校,2015/10/,138.5521848,36.53629784
前橋市立荒牧小学校みやま分校,371-0046,前橋市川原町826,027-231-4700,,公立小学校,公立小学校,公立小学校,2015/10/,139.0380964,36.43288838
前橋市立滝窪小学校金丸分校,371-0234,前橋市東金丸町136-1,027-283-4420,,公立小学校,公立小学校,公立小学校,2015/10/,139.1332366,36.46602952
